{
    "links": {
        "self": "http://www.neowsapp.com/rest/v1/neo/3789378?api_key=iIulBulltgU6a56xZRHN4H3l9WmuAYTsLGpBGhQ2"
    },
    "id": "3789378",
    "neo_reference_id": "3789378",
    "name": "(2017 VM13)",
    "designation": "2017 VM13",
    "nasa_jpl_url": "http://ssd.jpl.nasa.gov/sbdb.cgi?sstr=3789378",
    "absolute_magnitude_h": 24.1,
    "estimated_diameter": {
        "kilometers": {
            "estimated_diameter_min": 0.040230458,
            "estimated_diameter_max": 0.0899580388
        },
        "meters": {
            "estimated_diameter_min": 40.2304579834,
            "estimated_diameter_max": 89.9580388169
        },
        "miles": {
            "estimated_diameter_min": 0.0249980399,
            "estimated_diameter_max": 0.0558973165
        },
        "feet": {
            "estimated_diameter_min": 131.9896957704,
            "estimated_diameter_max": 295.1379320721
        }
    },
    "is_potentially_hazardous_asteroid": false,
    "close_approach_data": [
        {
            "close_approach_date": "2013-09-01",
            "close_approach_date_full": "2013-Sep-01 19:32",
            "epoch_date_close_approach": 1378063920000,
            "relative_velocity": {
                "kilometers_per_second": "18.0656824358",
                "kilometers_per_hour": "65036.4567689344",
                "miles_per_hour": "40411.1250406748"
            },
            "miss_distance": {
                "astronomical": "0.480818138",
                "lunar": "187.038255682",
                "kilometers": "71929369.30216606",
                "miles": "44694837.557209228"
            },
            "orbiting_body": "Earth"
        },
        {
            "close_approach_date": "2015-09-28",
            "close_approach_date_full": "2015-Sep-28 13:14",
            "epoch_date_close_approach": 1443446040000,
            "relative_velocity": {
                "kilometers_per_second": "10.5278170827",
                "kilometers_per_hour": "37900.1414976329",
                "miles_per_hour": "23549.6740322375"
            },
            "miss_distance": {
                "astronomical": "0.2496851568",
                "lunar": "97.1275259952",
                "kilometers": "37352367.627896016",
                "miles": "23209684.9965803808"
            },
            "orbiting_body": "Earth"
        },
        {
            "close_approach_date": "2017-11-13",
            "close_approach_date_full": "2017-Nov-13 13:47",
            "epoch_date_close_approach": 1510580820000,
            "relative_velocity": {
                "kilometers_per_second": "7.9491616754",
                "kilometers_per_hour": "28616.9820315727",
                "miles_per_hour": "17781.4797517847"
            },
            "miss_distance": {
                "astronomical": "0.0449258405",
                "lunar": "17.4761519545",
                "kilometers": "6720810.046759735",
                "miles": "4176117.713904943"
            },
            "orbiting_body": "Earth"
        },
        {
            "close_approach_date": "2019-12-04",
            "close_approach_date_full": "2019-Dec-04 21:12",
            "epoch_date_close_approach": 1575493920000,
            "relative_velocity": {
                "kilometers_per_second": "13.6527949174",
                "kilometers_per_hour": "49150.0617027973",
                "miles_per_hour": "30539.9369508298"
            },
            "miss_distance": {
                "astronomical": "0.2486770157",
                "lunar": "96.7353591073",
                "kilometers": "37201551.866676559",
                "miles": "23115972.4280681542"
            },
            "orbiting_body": "Earth"
        },
        {
            "close_approach_date": "2070-12-12",
            "close_approach_date_full": "2070-Dec-12 20:30",
            "epoch_date_close_approach": 3185641800000,
            "relative_velocity": {
                "kilometers_per_second": "17.3739543156",
                "kilometers_per_hour": "62546.2355362226",
                "miles_per_hour": "38863.7984086046"
            },
            "miss_distance": {
                "astronomical": "0.3847274074",
                "lunar": "149.6589614786",
                "kilometers": "57554400.677662238",
                "miles": "35762646.2451573644"
            },
            "orbiting_body": "Earth"
        }
    ],
    "orbital_data": {
        "orbit_id": "11",
        "orbit_determination_date": "2018-01-01 06:21:41",
        "first_observation_date": "2017-11-13",
        "last_observation_date": "2017-12-21",
        "data_arc_in_days": 38,
        "observations_used": 75,
        "orbit_uncertainty": "6",
        "minimum_orbit_intersection": ".0440058",
        "jupiter_tisserand_invariant": "4.248",
        "epoch_osculation": "2459000.5",
        "eccentricity": ".3704443552395891",
        "semi_major_axis": "1.608882138021708",
        "inclination": "11.10646329121266",
        "ascending_node_longitude": "238.6227478840392",
        "orbital_period": "745.392076770186",
        "perihelion_distance": "1.012880831745765",
        "perihelion_argument": "155.2251357808275",
        "aphelion_distance": "2.204883444297652",
        "perihelion_time": "2458800.382830625999",
        "mean_anomaly": "96.65004930935407",
        "mean_motion": ".4829673016647756",
        "equinox": "J2000",
        "orbit_class": {
            "orbit_class_type": "APO",
            "orbit_class_description": "Near-Earth asteroid orbits which cross the Earth’s orbit similar to that of 1862 Apollo",
            "orbit_class_range": "a (semi-major axis) > 1.0 AU; q (perihelion) < 1.017 AU"
        }
    },
    "is_sentry_object": false
}